ONEWEB-0517             
1 54135U 22138Y   24108.88824868  .00000061  00000+0  11995-3 0  9995
2 54135  87.9095 102.2622 0002006  73.6900 286.4453 13.19723801 72596
ONEWEB-0520             
1 54138U 22138AB  24108.89141905  .00000012  00000+0 -18413-5 0  9994
2 54138  87.9094 102.2605 0001399  93.3452 266.7840 13.19725433 72587
ONEWEB-0521             
1 54139U 22138AC  24108.92459132  .00000113  00000+0  25035-3 0  9990
2 54139  87.9094 102.2478 0002091  81.3543 278.7826 13.19725630 73435
ONEWEB-0522             
1 54140U 22138AD  24109.05568878  .00000034  00000+0  53131-4 0  9996
2 54140  87.9093 102.2233 0001846  91.9177 268.2168 13.19725631 73469
ONEWEB-0523             
1 54141U 22138AE  24108.96292659 -.00000006  00000+0 -47321-4 0  9992
2 54141  87.9178  71.6746 0002906  84.6031 275.5433 13.20770629 75869
ONEWEB-0524             
1 54142U 22138AF  24108.95187871  .00000030  00000+0  42257-4 0  9999
2 54142  87.9177  71.6806 0002697 107.2928 252.8500 13.20771572 75861
